TRANSPORTER-12 OBJECT AZ
1 62656U 25009AZ  26068.71026235  .00016057  00000+0  54903-3 0  9991
2 62656  97.3981 151.9913 0000987  45.3581 314.7740 15.30349724 63792
STARLINK-35811          
1 66596U 25270J   26068.37318022  .00041822  00000+0  15204-2 0  9996
2 66596  43.0034  58.3000 0001095 287.3738  72.6994 15.27587209 17761
